CCSDS_OMM_VERS = 2.0
CREATION_DATE  = 
ORIGINATOR     = 

OBJECT_NAME    = UNKNOWN
OBJECT_ID      = 
CENTER_NAME    = EARTH
REF_FRAME      = TEME
TIME_SYSTEM    = UTC
MEAN_ELEMENT_THEORY = SGP/SGP4

EPOCH          = 2026-01-17T06:35:14.931168
MEAN_MOTION    = 8.87074628
ECCENTRICITY   = .2934275
INCLINATION    = 63.4275
RA_OF_ASC_NODE = 9.1379
ARG_OF_PERICENTER = 319.6123
MEAN_ANOMALY   = 21.9590

EPHEMERIS_TYPE = 0
CLASSIFICATION_TYPE = U
NORAD_CAT_ID   = 89132
ELEMENT_SET_NO = 999
REV_AT_EPOCH   = 32826
BSTAR          = .12214E-1
MEAN_MOTION_DOT = .9483E-4
MEAN_MOTION_DDOT = 0

CCSDS_OMM_VERS = 2.0
CREATION_DATE  = 
ORIGINATOR     = 

OBJECT_NAME    = UNKNOWN
OBJECT_ID      = 
CENTER_NAME    = EARTH
REF_FRAME      = TEME
TIME_SYSTEM    = UTC
MEAN_ELEMENT_THEORY = SGP/SGP4

EPOCH          = 2026-01-17T13:05:46.154976
MEAN_MOTION    = 14.63479983
ECCENTRICITY   = .0091779
INCLINATION    = 98.2508
RA_OF_ASC_NODE = 311.2774
ARG_OF_PERICENTER = 304.1657
MEAN_ANOMALY   = 55.0868

EPHEMERIS_TYPE = 0
CLASSIFICATION_TYPE = U
NORAD_CAT_ID   = 89146
ELEMENT_SET_NO = 999
REV_AT_EPOCH   = 63411
BSTAR          = .78527E-3
MEAN_MOTION_DOT = .4271E-4
MEAN_MOTION_DDOT = 0

CCSDS_OMM_VERS = 2.0
CREATION_DATE  = 
ORIGINATOR     = 

OBJECT_NAME    = UNKNOWN
OBJECT_ID      = 
CENTER_NAME    = EARTH
REF_FRAME      = TEME
TIME_SYSTEM    = UTC
MEAN_ELEMENT_THEORY = SGP/SGP4

EPOCH          = 2026-01-17T00:13:15.320640
MEAN_MOTION    = 15.48231233
ECCENTRICITY   = .0025875
INCLINATION    = 97.6520
RA_OF_ASC_NODE = 39.5444
ARG_OF_PERICENTER = 299.6561
MEAN_ANOMALY   = 60.2113

EPHEMERIS_TYPE = 0
CLASSIFICATION_TYPE = U
NORAD_CAT_ID   = 89161
ELEMENT_SET_NO = 999
REV_AT_EPOCH   = 55402
BSTAR          = .22698E-2
MEAN_MOTION_DOT = .122731E-2
MEAN_MOTION_DDOT = 0

CCSDS_OMM_VERS = 2.0
CREATION_DATE  = 
ORIGINATOR     = 

OBJECT_NAME    = UNKNOWN
OBJECT_ID      = 
CENTER_NAME    = EARTH
REF_FRAME      = TEME
TIME_SYSTEM    = UTC
MEAN_ELEMENT_THEORY = SGP/SGP4

EPOCH          = 2026-01-13T18:33:27.606816
MEAN_MOTION    = 14.47489044
ECCENTRICITY   = .0288462
INCLINATION    = 82.0632
RA_OF_ASC_NODE = 191.8636
ARG_OF_PERICENTER = 182.6478
MEAN_ANOMALY   = 177.3210

EPHEMERIS_TYPE = 0
CLASSIFICATION_TYPE = U
NORAD_CAT_ID   = 89172
ELEMENT_SET_NO = 999
REV_AT_EPOCH   = 60652
BSTAR          = .17951E-2
MEAN_MOTION_DOT = .112E-3
MEAN_MOTION_DDOT = 0

CCSDS_OMM_VERS = 2.0
CREATION_DATE  = 
ORIGINATOR     = 

OBJECT_NAME    = UNKNOWN
OBJECT_ID      = 
CENTER_NAME    = EARTH
REF_FRAME      = TEME
TIME_SYSTEM    = UTC
MEAN_ELEMENT_THEORY = SGP/SGP4

EPOCH          = 2026-01-17T08:25:10.154208
MEAN_MOTION    = 13.73732571
ECCENTRICITY   = .0033388
INCLINATION    = 82.9186
RA_OF_ASC_NODE = 242.7159
ARG_OF_PERICENTER = 45.0016
MEAN_ANOMALY   = 315.3836

EPHEMERIS_TYPE = 0
CLASSIFICATION_TYPE = U
NORAD_CAT_ID   = 89177
ELEMENT_SET_NO = 999
REV_AT_EPOCH   = 6771
BSTAR          = .84389E-4
MEAN_MOTION_DOT = .94E-6
MEAN_MOTION_DDOT = 0

CCSDS_OMM_VERS = 2.0
CREATION_DATE  = 
ORIGINATOR     = 

OBJECT_NAME    = UNKNOWN
OBJECT_ID      = 
CENTER_NAME    = EARTH
REF_FRAME      = TEME
TIME_SYSTEM    = UTC
MEAN_ELEMENT_THEORY = SGP/SGP4

EPOCH          = 2026-01-15T05:14:45.682656
MEAN_MOTION    = 13.81622737
ECCENTRICITY   = .0131321
INCLINATION    = 99.2198
RA_OF_ASC_NODE = 290.5326
ARG_OF_PERICENTER = 67.4246
MEAN_ANOMALY   = 294.0742

EPHEMERIS_TYPE = 0
CLASSIFICATION_TYPE = U
NORAD_CAT_ID   = 89183
ELEMENT_SET_NO = 999
REV_AT_EPOCH   = 61159
BSTAR          = .43095E-3
MEAN_MOTION_DOT = .449E-5
MEAN_MOTION_DDOT = 0

CCSDS_OMM_VERS = 2.0
CREATION_DATE  = 
ORIGINATOR     = 

OBJECT_NAME    = UNKNOWN
OBJECT_ID      = 
CENTER_NAME    = EARTH
REF_FRAME      = TEME
TIME_SYSTEM    = UTC
MEAN_ELEMENT_THEORY = SGP/SGP4

EPOCH          = 2026-01-15T13:50:43.227744
MEAN_MOTION    = 14.82892191
ECCENTRICITY   = .0011944
INCLINATION    = 98.3888
RA_OF_ASC_NODE = 246.9121
ARG_OF_PERICENTER = 20.3999
MEAN_ANOMALY   = 339.7688

EPHEMERIS_TYPE = 0
CLASSIFICATION_TYPE = U
NORAD_CAT_ID   = 89184
ELEMENT_SET_NO = 999
REV_AT_EPOCH   = 49718
BSTAR          = .16229E-2
MEAN_MOTION_DOT = .13133E-3
MEAN_MOTION_DDOT = 0

CCSDS_OMM_VERS = 2.0
CREATION_DATE  = 
ORIGINATOR     = 

OBJECT_NAME    = UNKNOWN
OBJECT_ID      = 
CENTER_NAME    = EARTH
REF_FRAME      = TEME
TIME_SYSTEM    = UTC
MEAN_ELEMENT_THEORY = SGP/SGP4

EPOCH          = 2026-01-16T10:16:56.847936
MEAN_MOTION    = 13.91630358
ECCENTRICITY   = .0228368
INCLINATION    = 98.7778
RA_OF_ASC_NODE = 252.7483
ARG_OF_PERICENTER = 31.4388
MEAN_ANOMALY   = 330.0193

EPHEMERIS_TYPE = 0
CLASSIFICATION_TYPE = U
NORAD_CAT_ID   = 89213
ELEMENT_SET_NO = 999
REV_AT_EPOCH   = 45749
BSTAR          = .32114E-3
MEAN_MOTION_DOT = .463E-5
MEAN_MOTION_DDOT = 0

CCSDS_OMM_VERS = 2.0
CREATION_DATE  = 
ORIGINATOR     = 

OBJECT_NAME    = UNKNOWN
OBJECT_ID      = 
CENTER_NAME    = EARTH
REF_FRAME      = TEME
TIME_SYSTEM    = UTC
MEAN_ELEMENT_THEORY = SGP/SGP4

EPOCH          = 2026-01-17T06:26:14.201088
MEAN_MOTION    = 9.25482299
ECCENTRICITY   = .2830216
INCLINATION    = 62.4795
RA_OF_ASC_NODE = 316.9641
ARG_OF_PERICENTER = 103.9587
MEAN_ANOMALY   = 288.8635

EPHEMERIS_TYPE = 0
CLASSIFICATION_TYPE = U
NORAD_CAT_ID   = 89251
ELEMENT_SET_NO = 999
REV_AT_EPOCH   = 37647
BSTAR          = .61624E-2
MEAN_MOTION_DOT = .10568E-3
MEAN_MOTION_DDOT = 0

CCSDS_OMM_VERS = 2.0
CREATION_DATE  = 
ORIGINATOR     = 

OBJECT_NAME    = UNKNOWN
OBJECT_ID      = 
CENTER_NAME    = EARTH
REF_FRAME      = TEME
TIME_SYSTEM    = UTC
MEAN_ELEMENT_THEORY = SGP/SGP4

EPOCH          = 2026-01-13T17:12:45.969408
MEAN_MOTION    = 14.43190218
ECCENTRICITY   = .0013997
INCLINATION    = 98.1556
RA_OF_ASC_NODE = 11.7614
ARG_OF_PERICENTER = 64.2609
MEAN_ANOMALY   = 296.0025

EPHEMERIS_TYPE = 0
CLASSIFICATION_TYPE = U
NORAD_CAT_ID   = 89261
ELEMENT_SET_NO = 999
REV_AT_EPOCH   = 53842
BSTAR          = .2166E-3
MEAN_MOTION_DOT = .688E-5
MEAN_MOTION_DDOT = 0

CCSDS_OMM_VERS = 2.0
CREATION_DATE  = 
ORIGINATOR     = 

OBJECT_NAME    = UNKNOWN
OBJECT_ID      = 
CENTER_NAME    = EARTH
REF_FRAME      = TEME
TIME_SYSTEM    = UTC
MEAN_ELEMENT_THEORY = SGP/SGP4

EPOCH          = 2026-01-17T11:02:23.008992
MEAN_MOTION    = 9.05751045
ECCENTRICITY   = .2870082
INCLINATION    = 84.2968
RA_OF_ASC_NODE = 94.4583
ARG_OF_PERICENTER = 299.4616
MEAN_ANOMALY   = 59.3186

EPHEMERIS_TYPE = 0
CLASSIFICATION_TYPE = U
NORAD_CAT_ID   = 89304
ELEMENT_SET_NO = 999
REV_AT_EPOCH   = 44163
BSTAR          = .4272E-1
MEAN_MOTION_DOT = .43975E-3
MEAN_MOTION_DDOT = 0

CCSDS_OMM_VERS = 2.0
CREATION_DATE  = 
ORIGINATOR     = 

OBJECT_NAME    = UNKNOWN
OBJECT_ID      = 
CENTER_NAME    = EARTH
REF_FRAME      = TEME
TIME_SYSTEM    = UTC
MEAN_ELEMENT_THEORY = SGP/SGP4

EPOCH          = 2026-01-15T22:57:41.795136
MEAN_MOTION    = 12.96257560
ECCENTRICITY   = .0029558
INCLINATION    = 90.2449
RA_OF_ASC_NODE = 8.1106
ARG_OF_PERICENTER = 173.4927
MEAN_ANOMALY   = 186.6582

EPHEMERIS_TYPE = 0
CLASSIFICATION_TYPE = U
NORAD_CAT_ID   = 89349
ELEMENT_SET_NO = 999
REV_AT_EPOCH   = 48318
BSTAR          = .1642E-2
MEAN_MOTION_DOT = .477E-5
MEAN_MOTION_DDOT = 0

