UNKNOWN                 
1 89132U          26017.27447837  .00009483  00000+0  12214-1 0  9995
2 89132  63.4275   9.1379 2934275 319.6123  21.9590  8.87074628328265
UNKNOWN                 
1 89146U          26017.54567309  .00004271  00000+0  78527-3 0  9998
2 89146  98.2508 311.2774 0091779 304.1657  55.0868 14.63479983634117
UNKNOWN                 
1 89161U          26017.00920510  .00122731  00000+0  22698-2 0  9992
2 89161  97.6520  39.5444 0025875 299.6561  60.2113 15.48231233554021
UNKNOWN                 
1 89172U          26013.77323619  .00011200  00000+0  17951-2 0  9995
2 89172  82.0632 191.8636 0288462 182.6478 177.3210 14.47489044606525
UNKNOWN                 
1 89177U          26017.35081197  .00000094  00000+0  84389-4 0  9990
2 89177  82.9186 242.7159 0033388  45.0016 315.3836 13.73732571 67718
UNKNOWN                 
1 89183U          26015.21858429  .00000449  00000+0  43095-3 0  9992
2 89183  99.2198 290.5326 0131321  67.4246 294.0742 13.81622737611596
UNKNOWN                 
1 89184U          26015.57688921  .00013133  00000+0  16229-2 0  9992
2 89184  98.3888 246.9121 0011944  20.3999 339.7688 14.82892191497180
UNKNOWN                 
1 89213U          26016.42843574  .00000463  00000+0  32114-3 0  9991
2 89213  98.7778 252.7483 0228368  31.4388 330.0193 13.91630358457495
UNKNOWN                 
1 89251U          26017.26821992  .00010568  00000+0  61624-2 0  9990
2 89251  62.4795 316.9641 2830216 103.9587 288.8635  9.25482299376472
UNKNOWN                 
1 89261U          26013.71719872  .00000688  00000+0  21660-3 0  9999
2 89261  98.1556  11.7614 0013997  64.2609 296.0025 14.43190218538427
UNKNOWN                 
1 89304U          26017.45998853  .00043975  00000+0  42720-1 0  9994
2 89304  84.2968  94.4583 2870082 299.4616  59.3186  9.05751045441636
UNKNOWN                 
1 89349U          26015.95673374  .00000477  00000+0  16420-2 0  9993
2 89349  90.2449   8.1106 0029558 173.4927 186.6582 12.96257560483184
